#dP2021  2 28  6  0  0.00000000      96 __u+U ITR00 EXT  IAC
## 2147  21600.00000000   900.00000000 59273 0.2500000000000
+  117   C06C07C08C09C10C11C12C13C14C16C19C20C21C22C23C24C25
+        C26C27C28C29C30C32C33C34C35C36C37C38C39C40C41C42C43
+        C44C45C46E01E02E03E04E05E07E08E09E11E12E13E14E15E18
+        E19E21E24E25E26E27E30E31E33E36G01G02G03G04G05G06G07
+        G08G09G10G11G12G13G14G15G16G17G18G19G20G21G22G23G24
+        G25G26G27G28G29G30G31G32J01J02J03R01R02R03R04R05R07
+        R08R09R11R12R13R14R15R16R17R18R19R20R21R22R24  0  0
++        10  8  9 10 10  8 10 11  8  9  8  9 11  9  9  9  9
++        11  9  7  9  9  9  8  9  8  9 10 10 11 11  9  8  9
++         9 10 10  8  9 10 10  8  9 10 10  9  9  8  8  8  9
++         8  7  9  9  9  7  8  8  7  9  8  8  8  9  7  9  9
++        12  8  7  9  8  9  8  8  8  8  8  8  7  8  8  7  8
++         8  9  8  7  8  9  8  8 12 11  9 10  9  8  8  8 10
++         8  9  8  7  9  8  8 10  9  8  7 10  9 10  9  0  0
%c M  cc GPS ccc cccc cccc cccc cccc ccccc ccccc ccccc ccccc
%c cc cc ccc ccc cccc cccc cccc cccc ccccc ccccc ccccc ccccc
%f  0.0000000  0.000000000  0.00000000000  0.000000000000000
%f  0.0000000  0.000000000  0.00000000000  0.000000000000000
%i    0    0    0    0      0      0      0      0         0
%i    0    0    0    0      0      0      0      0         0
/* IAC                                ULTRA-RAPID PREDICTION
/* S/V CLOCKS ARE ALIGNED TO GNSS TIME                      
/* G:C1WC2W R:C1PC2P E:C1XC5X C:C2IC6I J:C1CC2S             
/* PCV:IGS14_2134 OL/AL:FES2004  NONE     YN ORB:CoN CLK:CoN
*  2021 02 28 14  0  0.00000000
PC06 -21596.688017  23123.065681 -27643.774727    132.979742
PC07 -16784.139127  37801.714793  -6351.222676   -371.401166
PC08  -5496.706635  24656.121513  33962.054081   -906.898240
PC09  -5366.738765  24588.339192 -33602.201820    701.646661
PC10  -6846.553333  40926.151930   6202.014477    -79.102276
PC11  25931.232658   5913.103697   8571.888192   -896.469074
PC12  11450.231775  13996.244159  21296.774200    830.345699
PC13   7033.075177  33093.595813  25428.467943    160.671564
PC14  15477.689130   4693.457490 -22718.000423    284.510687
PC16 -17644.517563  23824.389637 -29985.808181   -714.309684
PC19 -18852.156567   5759.290811  19774.566314    744.469482
PC20 -10461.834463 -13024.651516  22375.227787   -921.478401
PC21  -4635.706923  24890.801918 -11693.626250   -860.654618
PC22 -16577.485900  21726.014078   5585.506507   -897.175236
PC23   9926.207801 -14124.293734  21921.209775   -876.035033
PC24  16968.243561  21511.918933   5369.234679   -770.834548
PC25  19189.326799   4156.418265  19831.051683   -949.590965
PC26   6236.610227  24947.009743 -10896.306511    942.069485
PC27   -462.318748 -15855.437068 -22975.030583    490.862667
PC28  19484.849803 -11280.372771 -16483.588212   -104.075226
PC29 -27882.736904   1182.604530    365.873085    358.593136
PC30 -20052.318790 -10604.643582 -16273.403094    448.639437
PC32   4428.515766 -24948.703340  11718.536176   -902.569112
PC33  18826.805554  -5813.809973 -19758.663344   -953.400173
PC34  20539.487579  10351.481300  15777.625325   -729.680729
PC35 -19368.241277  11860.026440  16240.207461   -396.700162
PC36 -19148.629706  -4938.062764 -19669.152752   -748.515496
PC37  -4962.277939 -24874.879496  11619.831862   -869.886285
PC38  -4554.992011  27675.770749  31548.616466    132.877960
PC39 -15978.223580  24984.337204 -30020.011061     28.909432
PC40 -13775.224896  39552.018851   4187.694382    136.169121
PC41  16596.068331 -21664.004821  -5761.202725   -930.034686
PC42  10029.264411  13640.896118 -22135.783210   -902.434498
PC43  27881.169540   -738.799634     77.952130   -618.359299
PC44    688.354508  15961.029247  22875.977184     61.916155
PC45  -9724.784389  14180.607053 -21985.592244    374.257180
PC46 -17338.013935 -20930.188485  -6235.941021    384.483894
PE01   6634.895068 -26098.541353  12271.874548  -1055.682676
PE02  -6566.397939  26181.539298 -12179.249051    201.684268
PE03 -16297.773032  21405.224679 -12333.030628   -403.686387
PE04  -2876.630336 -17954.515062  23361.559276   -719.205708
PE05 -26202.658784  12341.213319   6107.519464   -300.856485
PE07  20722.606789   3819.342000 -20786.819850   -506.721082
PE08   3218.314346  17664.295703 -23530.265079   6040.226329
PE09 -20757.498281  -3495.839757  20808.439697   5750.360320
PE11 -26673.338391 -12860.190474    -32.915591   6263.565039
PE12 -13373.851692 -19436.487134 -17882.330207   5333.565075
PE13  26578.271337  13009.191748    466.283834    412.828972
PE14  10872.726255 -21973.967573 -21200.947019  -1345.622375
PE15  13458.493417  19338.233113  17926.304108    827.038733
PE18 -10596.057601  15564.734762  14193.800335  -1471.193036
PE19  18135.377585 -20927.622237  10455.193205    215.137866
PE21  15269.627620  -9402.666345  23542.518347   -650.985952
PE24 -15192.805750 -14054.654386 -21165.337412   -767.790908
PE25 -15315.709995   9218.235166 -23593.283207   -527.405525
PE26  23690.303336  -1507.741448 -17670.194791   2095.936731
PE27  15380.585895  13328.962592  21497.433147     20.330652
PE30   5819.193683  28395.163122   6044.852912   3144.683680
PE31  -6450.612633 -28063.836479  -6831.047907   -478.720942
PE33   7533.487417 -14280.517468 -24796.849835   -466.097232
PE36 -24047.619808    966.339670  17249.522184    434.540704
PG01 -22215.013435 -14230.559195   4150.612940    751.680267
PG02   8234.777202  19534.372281  16641.533258   -581.474906
PG03 -13367.967057  -8919.810049  21085.964243    -95.208079
PG04 -20790.023381  -4341.944121  15987.278124   -183.267721
PG05   4866.034764  23894.309059 -10455.424796    -34.928121
PG06  -4965.646617  14531.049210  21729.353567     -1.249007
PG07 -21153.009313  -2471.180175 -15832.810503     74.312576
PG08 -15076.550564  -8686.989365 -20148.269732    -11.976178
PG09 -25160.728552   5806.061407   6205.125145   -327.010558
PG10  11646.009789 -19976.008819 -12714.507653    -71.154117
PG11 -22700.002085 -10797.328411  -8447.306819    -11.968760
PG12  10688.235475  13911.821848  19741.251083     -7.402262
PG13   4466.281349  14447.884851 -21972.033704    102.388725
PG14 -13296.481775  18498.644993 -13657.012222     99.138075
PG15  16528.360669   7823.011242 -19728.396021   -166.329464
PG16   -506.281343 -24767.927807  -9144.155658   -286.919240
PG17 -19968.947410  14174.957395  10705.180897    401.840364
PG18  19162.951314   -692.739554 -18406.782038    349.117273
PG19 -13878.531614  15304.224114  16354.653384    -32.524796
PG20  14835.176820  -8793.363395 -20185.665388    524.480431
PG21 -20837.901296 -16468.838385  -2836.357563     99.344065
PG22 -11439.179726 -17622.421471  16547.275977   -670.194074
PG23  14913.595811  -9869.227702 -19645.345783    118.280194
PG24  21473.212651  15945.793297  -1487.413087      1.731845
PG25  15300.225408  -1866.333439  21341.732309     89.566543
PG26   4189.518427 -25989.582525   2128.790084     51.420734
PG27  -1821.381720 -15165.975114 -21850.479072    -85.088258
PG28 -12403.534435  20789.822309 -10579.554551    609.052308
PG29  25559.857674  -3906.085941   6123.930240   -303.314903
PG30 -13262.964140   9141.563573 -21095.948677   -391.540527
PG31   3104.133713 -16282.671480  20571.894399   -102.806037
PG32  18169.228692 -15841.975431  11057.875543     20.120369
PJ01 -33383.559206  25651.051962   7190.138335   -344.084701
PJ02 -20171.521305  26310.215271 -21549.300779      2.570030
PJ03 -30121.947700  24683.945249  21188.459228     -1.173238
PR01 -18078.422759  15583.085758   8984.965166     75.688647
PR02  -9901.309492  20319.258949 -11839.888007    468.825617
PR03   3994.361472  11714.373964 -22268.997673     31.549526
PR04  15287.003415  -3564.963156 -20076.141890     75.830635
PR05  18125.802863 -16666.786587  -6602.641686     67.298753
PR07  -4592.255840 -11160.132996  22504.507296    -42.515247
PR08 -15408.813577   3512.996393  20084.122779    -57.637118
PR09  -2630.756237 -22737.271011  11341.374124    -19.477615
PR11 -13431.471416  -9020.089828 -19716.180818      2.749085
PR12  -7653.922577   9850.333360 -22233.303039    208.709046
PR13   2475.380402  22438.417003 -11903.648778    -51.357022
PR14  11296.529818  22044.341640   6080.326621     61.487651
PR15  13352.639993   8782.789892  19896.545809    105.161343
PR16   7179.436058 -10816.712046  21904.849646    -11.890716
PR17  15873.940570  10656.150764  16916.275237    403.963132
PR18  24862.676310   5327.092757   1615.930634     68.181006
PR19  21218.725343  -1912.907390 -14020.846621   -133.853875
PR20   3196.181310  -9889.314911 -23281.220632    -44.162178
PR21 -16797.388099 -10436.789400 -16095.164407   -190.983025
PR22 -25072.327850  -4963.933089   -446.306657   -100.229708
PR24  -2410.131428  10564.947924  23112.760321     33.242616
EOF
